{"type": "FeatureCollection", "features": [ {"type": "Feature", "properties": {"norad_id": 42738, "name": "QZS-2 (QZSS/PRN 194)", "group": "gnss", "lat": -6.604492614751064, "lon": 73.93821790989445, "alt_km": 34952.02651121776, "timestamp": "2025-12-10T14:53:37.338881+00:00", "meta": {"OBJECT_NAME": "QZS-2 (QZSS/PRN 194)", "OBJECT_ID": "2017-028A", "EPOCH": "2025-12-09T14:12:26.534592", "MEAN_MOTION": 1.00283879, "ECCENTRICITY": 0.07580465, "INCLINATION": 39.7194, "RA_OF_ASC_NODE": 245.9297, "ARG_OF_PERICENTER": 269.4439, "MEAN_ANOMALY": 278.0192, "EPHEMERIS_TYPE": 0, "CLASSIFICATION_TYPE": "U", "NORAD_CAT_ID": 42738, "ELEMENT_SET_NO": 999, "REV_AT_EPOCH": 572, "BSTAR": 0, "MEAN_MOTION_DOT": -1.94e-06, "MEAN_MOTION_DDOT": 0}, "tle": {"line1": "1 42738U 17028A   25343.59197378 -.00000194  00000+0  00000+0 0  9991", "line2": "2 42738  39.7194 245.9297 0758046 269.4439 278.0192  1.00283879  5725"}}, "geometry": {"type": "Point", "coordinates": [73.93821790989445, -6.604492614751064]}}, {"type": "Feature", "properties": {"norad_id": 42917, "name": "QZS-3 (QZSS/PRN 199)", "group": "gnss", "lat": -0.021310977862285436, "lon": 70.05840015203535, "alt_km": 35794.418268357804, "timestamp": "2025-12-10T14:53:37.338892+00:00", "meta": {"OBJECT_NAME": "QZS-3 (QZSS/PRN 199)", "OBJECT_ID": "2017-048A", "EPOCH": "2025-12-10T05:30:38.805984", "MEAN_MOTION": 1.00273084, "ECCENTRICITY": 0.00021158, "INCLINATION": 0.0627, "RA_OF_ASC_NODE": 202.7184, "ARG_OF_PERICENTER": 62.6336, "MEAN_ANOMALY": 23.5723, "EPHEMERIS_TYPE": 0, "CLASSIFICATION_TYPE": "U", "NORAD_CAT_ID": 42917, "ELEMENT_SET_NO": 999, "REV_AT_EPOCH": 3036, "BSTAR": 0, "MEAN_MOTION_DOT": -3.44e-06, "MEAN_MOTION_DDOT": 0}, "tle": {"line1": "1 42917U 17048A   25344.22961581 -.00000344  00000+0  00000+0 0  9995", "line2": "2 42917   0.0627 202.7184 0002115  62.6336  23.5723  1.00273084 30368"}}, "geometry": {"type": "Point", "coordinates": [70.05840015203535, -0.021310977862285436]}}, {"type": "Feature", "properties": {"norad_id": 42939, "name": "COSMOS 2522 (752)", "group": "gnss", "lat": 59.268592330296755, "lon": -36.59833720582534, "alt_km": 19131.5361037982, "timestamp": "2025-12-10T14:53:37.338904+00:00", "meta": {"OBJECT_NAME": "COSMOS 2522 (752)", "OBJECT_ID": "2017-055A", "EPOCH": "2025-12-10T00:16:43.891104", "MEAN_MOTION": 2.13101818, "ECCENTRICITY": 0.0006628, "INCLINATION": 64.076, "RA_OF_ASC_NODE": 198.322, "ARG_OF_PERICENTER": 225.9279, "MEAN_ANOMALY": 134.088, "EPHEMERIS_TYPE": 0, "CLASSIFICATION_TYPE": "U", "NORAD_CAT_ID": 42939, "ELEMENT_SET_NO": 999, "REV_AT_EPOCH": 6394, "BSTAR": 0, "MEAN_MOTION_DOT": 4.5e-07, "MEAN_MOTION_DDOT": 0}, "tle": {"line1": "1 42939U 17055A   25344.01161911  .00000045  00000+0  00000+0 0  9990", "line2": "2 42939  64.0760 198.3220 0006628 225.9279 134.0880  2.13101818 63946"}}, "geometry": {"type": "Point", "coordinates": [-36.59833720582534, 59.268592330296755]}}, {"type": "Feature", "properties": {"norad_id": 42965, "name": "QZS-4 (QZSS/PRN 195)", "group": "gnss", "lat": 40.1262657776929, "lon": 80.32289430598289, "alt_km": 38969.889856820446, "timestamp": "2025-12-10T14:53:37.338916+00:00", "meta": {"OBJECT_NAME": "QZS-4 (QZSS/PRN 195)", "OBJECT_ID": "2017-062A", "EPOCH": "2025-12-09T21:02:05.516736", "MEAN_MOTION": 1.00253343, "ECCENTRICITY": 0.07522017, "INCLINATION": 40.2272, "RA_OF_ASC_NODE": 345.9065, "ARG_OF_PERICENTER": 271.4859, "MEAN_ANOMALY": 273.624, "EPHEMERIS_TYPE": 0, "CLASSIFICATION_TYPE": "U", "NORAD_CAT_ID": 42965, "ELEMENT_SET_NO": 999, "REV_AT_EPOCH": 2990, "BSTAR": 0, "MEAN_MOTION_DOT": -3.57e-06, "MEAN_MOTION_DDOT": 0}, "tle": {"line1": "1 42965U 17062A   25343.87645274 -.00000357  00000+0  00000+0 0  9996", "line2": "2 42965  40.2272 345.9065 0752201 271.4859 273.6240  1.00253343 29905"}}, "geometry": {"type": "Point", "coordinates": [80.32289430598289, 40.1262657776929]}}, {"type": "Feature", "properties": {"norad_id": 43001, "name": "BEIDOU-3 M1 (C19)", "group": "gnss", "lat": -22.78541607537622, "lon": 53.19730720829221, "alt_km": 21509.022406838176, "timestamp": "2025-12-10T14:53:37.338927+00:00", "meta": {"OBJECT_NAME": "BEIDOU-3 M1 (C19)", "OBJECT_ID": "2017-069A", "EPOCH": "2025-12-09T14:06:31.411584", "MEAN_MOTION": 1.8623096, "ECCENTRICITY": 0.0009028, "INCLINATION": 56.5248, "RA_OF_ASC_NODE": 69.3379, "ARG_OF_PERICENTER": 303.8833, "MEAN_ANOMALY": 56.0533, "EPHEMERIS_TYPE": 0, "CLASSIFICATION_TYPE": "U", "NORAD_CAT_ID": 43001, "ELEMENT_SET_NO": 999, "REV_AT_EPOCH": 5507, "BSTAR": 0, "MEAN_MOTION_DOT": -4.9e-07, "MEAN_MOTION_DDOT": 0}, "tle": {"line1": "1 43001U 17069A   25343.58786356 -.00000049  00000+0  00000+0 0  9998", "line2": "2 43001  56.5248  69.3379 0009028 303.8833  56.0533  1.86230960 55078"}}, "geometry": {"type": "Point", "coordinates": [53.19730720829221, -22.78541607537622]}}, {"type": "Feature", "properties": {"norad_id": 43002, "name": "BEIDOU-3 M2 (C20)", "group": "gnss", "lat": 11.408733759818517, "lon": 77.01149532516091, "alt_km": 21513.73858978425, "timestamp": "2025-12-10T14:53:37.338963+00:00", "meta": {"OBJECT_NAME": "BEIDOU-3 M2 (C20)", "OBJECT_ID": "2017-069B", "EPOCH": "2025-12-09T12:37:45.819264", "MEAN_MOTION": 1.8623055, "ECCENTRICITY": 0.0006254, "INCLINATION": 56.5238, "RA_OF_ASC_NODE": 69.3764, "ARG_OF_PERICENTER": 332.6094, "MEAN_ANOMALY": 27.38, "EPHEMERIS_TYPE": 0, "CLASSIFICATION_TYPE": "U", "NORAD_CAT_ID": 43002, "ELEMENT_SET_NO": 999, "REV_AT_EPOCH": 5506, "BSTAR": 0, "MEAN_MOTION_DOT": -4.8e-07, "MEAN_MOTION_DDOT": 0}, "tle": {"line1": "1 43002U 17069B   25343.52622476 -.00000048  00000+0  00000+0 0  9994", "line2": "2 43002  56.5238  69.3764 0006254 332.6094  27.3800  1.86230550 55065"}}, "geometry": {"type": "Point", "coordinates": [77.01149532516091, 11.408733759818517]}}, {"type": "Feature", "properties": {"norad_id": 43055, "name": "GSAT0215 (GALILEO 19)", "group": "gnss", "lat": -46.88554509968618, "lon": 178.62402247695346, "alt_km": 23224.924847310253, "timestamp": "2025-12-10T14:53:37.338975+00:00", "meta": {"OBJECT_NAME": "GSAT0215 (GALILEO 19)", "OBJECT_ID": "2017-079A", "EPOCH": "2025-12-09T13:11:41.418816", "MEAN_MOTION": 1.70473866, "ECCENTRICITY": 0.00012854, "INCLINATION": 55.1311, "RA_OF_ASC_NODE": 226.7257, "ARG_OF_PERICENTER": 343.8684, "MEAN_ANOMALY": 16.2123, "EPHEMERIS_TYPE": 0, "CLASSIFICATION_TYPE": "U", "NORAD_CAT_ID": 43055, "ELEMENT_SET_NO": 999, "REV_AT_EPOCH": 4975, "BSTAR": 0, "MEAN_MOTION_DOT": 1.1e-07, "MEAN_MOTION_DDOT": 0}, "tle": {"line1": "1 43055U 17079A   25343.54978494  .00000011  00000+0  00000+0 0  9998", "line2": "2 43055  55.1311 226.7257 0001285 343.8684  16.2123  1.70473866 49750"}}, "geometry": {"type": "Point", "coordinates": [178.62402247695346, -46.88554509968618]}}, {"type": "Feature", "properties": {"norad_id": 43056, "name": "GSAT0216 (GALILEO 20)", "group": "gnss", "lat": 46.18445408815289, "lon": 0.14755593605833733, "alt_km": 23223.657791533395, "timestamp": "2025-12-10T14:53:37.338986+00:00", "meta": {"OBJECT_NAME": "GSAT0216 (GALILEO 20)", "OBJECT_ID": "2017-079B", "EPOCH": "2025-12-08T01:57:06.766848", "MEAN_MOTION": 1.70473892, "ECCENTRICITY": 0.00025149, "INCLINATION": 55.132, "RA_OF_ASC_NODE": 226.7661, "ARG_OF_PERICENTER": 318.3772, "MEAN_ANOMALY": 41.6956, "EPHEMERIS_TYPE": 0, "CLASSIFICATION_TYPE": "U", "NORAD_CAT_ID": 43056, "ELEMENT_SET_NO": 999, "REV_AT_EPOCH": 4974, "BSTAR": 0, "MEAN_MOTION_DOT": 1.9e-07, "MEAN_MOTION_DDOT": 0}, "tle": {"line1": "1 43056U 17079B   25342.08132832  .00000019  00000+0  00000+0 0  9993", "line2": "2 43056  55.1320 226.7661 0002514 318.3772  41.6956  1.70473892 49745"}}, "geometry": {"type": "Point", "coordinates": [0.14755593605833733, 46.18445408815289]}}, {"type": "Feature", "properties": {"norad_id": 43057, "name": "GSAT0217 (GALILEO 21)", "group": "gnss", "lat": -13.92856530606175, "lon": -143.24705726645627, "alt_km": 23215.94652397472, "timestamp": "2025-12-10T14:53:37.338998+00:00", "meta": {"OBJECT_NAME": "GSAT0217 (GALILEO 21)", "OBJECT_ID": "2017-079C", "EPOCH": "2025-12-10T01:28:57.302112", "MEAN_MOTION": 1.704739, "ECCENTRICITY": 0.00027944, "INCLINATION": 55.1293, "RA_OF_ASC_NODE": 226.7095, "ARG_OF_PERICENTER": 343.7549, "MEAN_ANOMALY": 16.3188, "EPHEMERIS_TYPE": 0, "CLASSIFICATION_TYPE": "U", "NORAD_CAT_ID": 43057, "ELEMENT_SET_NO": 999, "REV_AT_EPOCH": 4976, "BSTAR": 0, "MEAN_MOTION_DOT": 9e-08, "MEAN_MOTION_DDOT": 0}, "tle": {"line1": "1 43057U 17079C   25344.06177433  .00000009  00000+0  00000+0 0  9999", "line2": "2 43057  55.1293 226.7095 0002794 343.7549  16.3188  1.70473900 49768"}}, "geometry": {"type": "Point", "coordinates": [-143.24705726645627, -13.92856530606175]}}, {"type": "Feature", "properties": {"norad_id": 43058, "name": "GSAT0218 (GALILEO 22)", "group": "gnss", "lat": -22.568482788389506, "lon": 63.53183003293834, "alt_km": 23226.455057993753, "timestamp": "2025-12-10T14:53:37.339008+00:00", "meta": {"OBJECT_NAME": "GSAT0218 (GALILEO 22)", "OBJECT_ID": "2017-079D", "EPOCH": "2025-12-09T02:36:28.325952", "MEAN_MOTION": 1.70473942, "ECCENTRICITY": 0.00028125, "INCLINATION": 55.1298, "RA_OF_ASC_NODE": 226.7335, "ARG_OF_PERICENTER": 306.3632, "MEAN_ANOMALY": 53.6978, "EPHEMERIS_TYPE": 0, "CLASSIFICATION_TYPE": "U", "NORAD_CAT_ID": 43058, "ELEMENT_SET_NO": 999, "REV_AT_EPOCH": 4977, "BSTAR": 0, "MEAN_MOTION_DOT": 1.2e-07, "MEAN_MOTION_DDOT": 0}, "tle": {"line1": "1 43058U 17079D   25343.10866118  .00000012  00000+0  00000+0 0  9993", "line2": "2 43058  55.1298 226.7335 0002812 306.3632  53.6978  1.70473942 49778"}}, "geometry": {"type": "Point", "coordinates": [63.53183003293834, -22.568482788389506]}}]}